{
    "links": {
        "self": "http://www.neowsapp.com/rest/v1/neo/3358219?api_key=iIulBulltgU6a56xZRHN4H3l9WmuAYTsLGpBGhQ2"
    },
    "id": "3358219",
    "neo_reference_id": "3358219",
    "name": "(2006 VU2)",
    "designation": "2006 VU2",
    "nasa_jpl_url": "http://ssd.jpl.nasa.gov/sbdb.cgi?sstr=3358219",
    "absolute_magnitude_h": 26.0,
    "estimated_diameter": {
        "kilometers": {
            "estimated_diameter_min": 0.0167708462,
            "estimated_diameter_max": 0.0375007522
        },
        "meters": {
            "estimated_diameter_min": 16.7708462163,
            "estimated_diameter_max": 37.5007521798
        },
        "miles": {
            "estimated_diameter_min": 0.0104209175,
            "estimated_diameter_max": 0.0233018799
        },
        "feet": {
            "estimated_diameter_min": 55.0224631002,
            "estimated_diameter_max": 123.0339677816
        }
    },
    "is_potentially_hazardous_asteroid": false,
    "close_approach_data": [
        {
            "close_approach_date": "2006-11-12",
            "close_approach_date_full": "2006-Nov-12 05:16",
            "epoch_date_close_approach": 1163308560000,
            "relative_velocity": {
                "kilometers_per_second": "6.9868937087",
                "kilometers_per_hour": "25152.8173512436",
                "miles_per_hour": "15628.9825369436"
            },
            "miss_distance": {
                "astronomical": "0.0691028998",
                "lunar": "26.8810280222",
                "kilometers": "10337646.620903426",
                "miles": "6423515.7478462388"
            },
            "orbiting_body": "Earth"
        }
    ],
    "orbital_data": {
        "orbit_id": "7",
        "orbit_determination_date": "2017-04-06 09:07:40",
        "first_observation_date": "2006-11-11",
        "last_observation_date": "2006-11-27",
        "data_arc_in_days": 16,
        "observations_used": 16,
        "orbit_uncertainty": "9",
        "minimum_orbit_intersection": ".0537725",
        "jupiter_tisserand_invariant": "3.361",
        "epoch_osculation": "2454054.5",
        "eccentricity": ".5485504456720403",
        "semi_major_axis": "2.316990941730412",
        "inclination": "2.173901032234469",
        "ascending_node_longitude": "226.8391618460481",
        "orbital_period": "1288.204852489612",
        "perihelion_distance": "1.046004528026114",
        "perihelion_argument": "172.4395192395384",
        "aphelion_distance": "3.587977355434709",
        "perihelion_time": "2454044.381068336879",
        "mean_anomaly": "2.827823068422215",
        "mean_motion": ".2794586585388624",
        "equinox": "J2000",
        "orbit_class": {
            "orbit_class_type": "AMO",
            "orbit_class_description": "Near-Earth asteroid orbits similar to that of 1221 Amor",
            "orbit_class_range": "1.017 AU < q (perihelion) < 1.3 AU"
        }
    },
    "is_sentry_object": false
}